{
  "type": "FeatureCollection",
  "features": [
    {
      "type": "Feature",
      "properties": {
        "norad_id": 67005,
        "name": "STARLINK-36148",
        "group": "last-30-days",
        "lat": 29.88556514550294,
        "lon": -51.48800305973008,
        "alt_km": 305.75349937373994,
        "timestamp": "2025-12-22T04:03:37.889962+00:00",
        "meta_object_name": "STARLINK-36148",
        "meta_object_id": "2025-293C",
        "meta_epoch": "2025-12-21T20:00:01.999008",
        "meta_mean_motion": 15.89773109,
        "meta_eccentricity": 0.0004388,
        "meta_inclination": 69.9941,
        "meta_ra_of_asc_node": 297.3965,
        "meta_arg_of_pericenter": 259.1332,
        "meta_mean_anomaly": 12.16,
        "meta_ephemeris_type": 0,
        "meta_classification_type": "U",
        "meta_norad_cat_id": 67005,
        "meta_element_set_no": 999,
        "meta_rev_at_epoch": 163,
        "meta_bstar": -0.0054293,
        "meta_mean_motion_dot": -0.01602129,
        "meta_mean_motion_ddot": 0.00070599,
        "tle_line1": "1 67005U 25293C   25355.83335647 -.01602129  70599-3 -54293-2 0  9999",
        "tle_line2": "2 67005  69.9941 297.3965 0004388 259.1332  12.1600 15.89773109  1637"
      },
      "geometry": {
        "type": "Point",
        "coordinates": [
          -51.48800305973008,
          29.88556514550294
        ]
      }
    },
    {
      "type": "Feature",
      "properties": {
        "norad_id": 67006,
        "name": "STARLINK-36156",
        "group": "last-30-days",
        "lat": 35.06460301767592,
        "lon": -48.76463172301501,
        "alt_km": 305.19789521655366,
        "timestamp": "2025-12-22T04:03:37.889975+00:00",
        "meta_object_name": "STARLINK-36156",
        "meta_object_id": "2025-293D",
        "meta_epoch": "2025-12-21T20:00:01.999008",
        "meta_mean_motion": 15.89812646,
        "meta_eccentricity": 0.0004437,
        "meta_inclination": 69.994,
        "meta_ra_of_asc_node": 297.3892,
        "meta_arg_of_pericenter": 261.3503,
        "meta_mean_anomaly": 15.616,
        "meta_ephemeris_type": 0,
        "meta_classification_type": "U",
        "meta_norad_cat_id": 67006,
        "meta_element_set_no": 999,
        "meta_rev_at_epoch": 163,
        "meta_bstar": -0.0059249,
        "meta_mean_motion_dot": -0.01750074,
        "meta_mean_motion_ddot": 0.00083182,
        "tle_line1": "1 67006U 25293D   25355.83335647 -.01750074  83182-3 -59249-2 0  9991",
        "tle_line2": "2 67006  69.9940 297.3892 0004437 261.3503  15.6160 15.89812646  1635"
      },
      "geometry": {
        "type": "Point",
        "coordinates": [
          -48.76463172301501,
          35.06460301767592
        ]
      }
    },
    {
      "type": "Feature",
      "properties": {
        "norad_id": 67007,
        "name": "STARLINK-36123",
        "group": "last-30-days",
        "lat": 32.71649577860642,
        "lon": -50.0425195328892,
        "alt_km": 305.12255062890927,
        "timestamp": "2025-12-22T04:03:37.889986+00:00",
        "meta_object_name": "STARLINK-36123",
        "meta_object_id": "2025-293E",
        "meta_epoch": "2025-12-21T20:00:01.999008",
        "meta_mean_motion": 15.89801676,
        "meta_eccentricity": 0.0003981,
        "meta_inclination": 69.9939,
        "meta_ra_of_asc_node": 297.3923,
        "meta_arg_of_pericenter": 263.8681,
        "meta_mean_anomaly": 10.5175,
        "meta_ephemeris_type": 0,
        "meta_classification_type": "U",
        "meta_norad_cat_id": 67007,
        "meta_element_set_no": 999,
        "meta_rev_at_epoch": 163,
        "meta_bstar": -0.0057522,
        "meta_mean_motion_dot": -0.01698444,
        "meta_mean_motion_ddot": 0.00078679,
        "tle_line1": "1 67007U 25293E   25355.83335647 -.01698444  78679-3 -57522-2 0  9991",
        "tle_line2": "2 67007  69.9939 297.3923 0003981 263.8681  10.5175 15.89801676  1637"
      },
      "geometry": {
        "type": "Point",
        "coordinates": [
          -50.0425195328892,
          32.71649577860642
        ]
      }
    },
    {
      "type": "Feature",
      "properties": {
        "norad_id": 67008,
        "name": "STARLINK-36163",
        "group": "last-30-days",
        "lat": 38.08119548510203,
        "lon": -46.99702266925301,
        "alt_km": 304.9830282119301,
        "timestamp": "2025-12-22T04:03:37.889996+00:00",
        "meta_object_name": "STARLINK-36163",
        "meta_object_id": "2025-293F",
        "meta_epoch": "2025-12-21T20:00:01.999008",
        "meta_mean_motion": 15.89826663,
        "meta_eccentricity": 0.000454,
        "meta_inclination": 69.9941,
        "meta_ra_of_asc_node": 297.3855,
        "meta_arg_of_pericenter": 262.051,
        "meta_mean_anomaly": 18.2683,
        "meta_ephemeris_type": 0,
        "meta_classification_type": "U",
        "meta_norad_cat_id": 67008,
        "meta_element_set_no": 999,
        "meta_rev_at_epoch": 163,
        "meta_bstar": -0.0062533,
        "meta_mean_motion_dot": -0.01847229,
        "meta_mean_motion_ddot": 0.00091983,
        "tle_line1": "1 67008U 25293F   25355.83335647 -.01847229  91983-3 -62533-2 0  9990",
        "tle_line2": "2 67008  69.9941 297.3855 0004540 262.0510  18.2683 15.89826663  1631"
      },
      "geometry": {
        "type": "Point",
        "coordinates": [
          -46.99702266925301,
          38.08119548510203
        ]
      }
    },
    {
      "type": "Feature",
      "properties": {
        "norad_id": 67009,
        "name": "STARLINK-36118",
        "group": "last-30-days",
        "lat": 40.57380600011819,
        "lon": -45.408825413813965,
        "alt_km": 304.25832805826485,
        "timestamp": "2025-12-22T04:03:37.890006+00:00",
        "meta_object_name": "STARLINK-36118",
        "meta_object_id": "2025-293G",
        "meta_epoch": "2025-12-21T20:00:01.999008",
        "meta_mean_motion": 15.89838911,
        "meta_eccentricity": 0.0003935,
        "meta_inclination": 69.9939,
        "meta_ra_of_asc_node": 297.3822,
        "meta_arg_of_pericenter": 269.0898,
        "meta_mean_anomaly": 14.0304,
        "meta_ephemeris_type": 0,
        "meta_classification_type": "U",
        "meta_norad_cat_id": 67009,
        "meta_element_set_no": 999,
        "meta_rev_at_epoch": 157,
        "meta_bstar": -0.0065775,
        "meta_mean_motion_dot": -0.01942544,
        "meta_mean_motion_ddot": 0.0010105,
        "tle_line1": "1 67009U 25293G   25355.83335647 -.01942544  10105-2 -65775-2 0  9994",
        "tle_line2": "2 67009  69.9939 297.3822 0003935 269.0898  14.0304 15.89838911  1572"
      },
      "geometry": {
        "type": "Point",
        "coordinates": [
          -45.408825413813965,
          40.57380600011819
        ]
      }
    },
    {
      "type": "Feature",
      "properties": {
        "norad_id": 67010,
        "name": "STARLINK-36189",
        "group": "last-30-days",
        "lat": 44.931940318672744,
        "lon": -42.27969144884589,
        "alt_km": 304.0917375998797,
        "timestamp": "2025-12-22T04:03:37.890016+00:00",
        "meta_object_name": "STARLINK-36189",
        "meta_object_id": "2025-293H",
        "meta_epoch": "2025-12-21T20:00:01.999008",
        "meta_mean_motion": 15.89802277,
        "meta_eccentricity": 0.0004281,
        "meta_inclination": 69.9938,
        "meta_ra_of_asc_node": 297.3763,
        "meta_arg_of_pericenter": 264.3468,
        "meta_mean_anomaly": 23.7232,
        "meta_ephemeris_type": 0,
        "meta_classification_type": "U",
        "meta_norad_cat_id": 67010,
        "meta_element_set_no": 999,
        "meta_rev_at_epoch": 163,
        "meta_bstar": -0.0064308,
        "meta_mean_motion_dot": -0.01896506,
        "meta_mean_motion_ddot": 0.00096586,
        "tle_line1": "1 67010U 25293H   25355.83335647 -.01896506  96586-3 -64308-2 0  9991",
        "tle_line2": "2 67010  69.9938 297.3763 0004281 264.3468  23.7232 15.89802277  1633"
      },
      "geometry": {
        "type": "Point",
        "coordinates": [
          -42.27969144884589,
          44.931940318672744
        ]
      }
    },
    {
      "type": "Feature",
      "properties": {
        "norad_id": 67011,
        "name": "STARLINK-36167",
        "group": "last-30-days",
        "lat": 42.46649926915697,
        "lon": -44.11140902738604,
        "alt_km": 304.2047864523538,
        "timestamp": "2025-12-22T04:03:37.890026+00:00",
        "meta_object_name": "STARLINK-36167",
        "meta_object_id": "2025-293J",
        "meta_epoch": "2025-12-21T20:00:01.999008",
        "meta_mean_motion": 15.89789905,
        "meta_eccentricity": 0.0004126,
        "meta_inclination": 69.9934,
        "meta_ra_of_asc_node": 297.3789,
        "meta_arg_of_pericenter": 265.5873,
        "meta_mean_anomaly": 19.6791,
        "meta_ephemeris_type": 0,
        "meta_classification_type": "U",
        "meta_norad_cat_id": 67011,
        "meta_element_set_no": 999,
        "meta_rev_at_epoch": 157,
        "meta_bstar": -0.0062457,
        "meta_mean_motion_dot": -0.01841344,
        "meta_mean_motion_ddot": 0.00091405,
        "tle_line1": "1 67011U 25293J   25355.83335647 -.01841344  91405-3 -62457-2 0  9990",
        "tle_line2": "2 67011  69.9934 297.3789 0004126 265.5873  19.6791 15.89789905  1578"
      },
      "geometry": {
        "type": "Point",
        "coordinates": [
          -44.11140902738604,
          42.46649926915697
        ]
      }
    }
  ]
}